1 20253U 89077A   26111.52780480 -.00000375  00000-0  00000+0 0  9993
2 20253  12.4376 351.5060 0007592   6.1434 167.4081  1.00262792259998
1 20776U 90079A   26111.73689950  .00000119  00000-0  00000+0 0  9995
2 20776  13.3584 350.2007 0002667  43.1586 115.1500  1.00275858130321
1 22787U 93056A   26111.83517199  .00000118  00000-0  00000+0 0  9992
2 22787  11.8759   3.8637 0008849 353.2673 182.1045  1.00276342117986
1 23467U 95003A   26111.57904425 -.00000028  00000-0  00000+0 0  9996
2 23467   9.7105  13.4192 0003513  14.3166 202.6514  1.00272409114381
1 23967U 96042A   26110.07006935 -.00000259  00000-0  00000-0 0  9995
2 23967  11.0628  17.3965 0007261  96.1257  85.2746  1.00231760108904
1 25544U 98067A   26111.74820810  .00009534  00000-0  18169-3 0  9990
2 25544  51.6323 219.4368 0006711 334.6967  25.3692 15.48877266563003
1 25967U 99063A   26107.12127912 -.00000179  00000-0  00000-0 0  9995
2 25967   9.8559  27.5336 0003913 326.7730 231.8326  1.00274470 96732
1 27168U 02001A   26110.93625332  .00000094  00000-0  00000-0 0  9993
2 27168  11.1130  22.2530 0099649   6.5768 176.2634  1.00277083 32389
1 27607U 02058C   26111.84690676  .00000691  00000-0  99339-4 0  9997
2 27607  64.5517 303.2842 0075570 272.7161  86.5297 14.82918295256104
1 28117U 03057A   26111.77359793 -.00000109  00000-0  00000+0 0  9995
2 28117   8.9261  34.1031 0002855 342.5979 187.0657  1.00272129 81881
1 28899U 05044A   26111.74516807 -.00000267  00000-0  00000+0 0  9993
2 28899   5.0231  43.7499 0002483 339.1651 238.6427  1.00269161 74953
1 30794U 07007B   26111.86433781 -.00000277  00000-0  00000+0 0  9994
2 30794   5.1590  74.4085 0004197 329.4737 212.4411  1.00270224 70133
1 32294U 07056B   26111.82574786  .00000135  00000-0  00000+0 0  9994
2 32294   5.1103  74.1576 0003858 314.9407 143.1665  1.00274083 67637
1 35943U 09054B   26111.87206787  .00000018  00000-0  00000+0 0  9996
2 35943   0.0313  78.4732 0003300 316.3122 192.1169  1.00269955 60741
1 36582U 10021B   26111.14902084  .00000084  00000-0  00000-0 0  9999
2 36582   0.0364 103.0412 0002678 301.4553 231.5632  1.00273834 58388
1 38098U 12011A   26111.78239104 -.00000065  00000-0  00000+0 0  9999
2 38098   0.0072 238.7647 0002009 174.6608 150.1943  1.00271977  6620
1 39034U 12075A   26111.79855497  .00000093  00000-0  00000+0 0  9990
2 39034   0.0712 354.1181 0003532  31.5242 164.4562  1.00270160 48595
1 39215U 13038A   26111.65048042  .00000128  00000-0  00000+0 0  9995
2 39215   2.9910   1.7692 0002042  50.8202  56.1908  1.00270685 43457
1 40296U 14069A   26111.35286322  .00000193  00000-0  00000+0 0  9995
2 40296  63.4474 220.9528 6669078 270.9248  19.3581  2.00584876 84091
1 40931U 15052B   25151.18580175  .00001241  00000-0  78118-4 0  9996
2 40931   6.0006  24.0987 0012733 338.8432  21.1169 14.78805930523159
1 43678U 18084H   26111.81338459  .00002192  00000-0  18041-3 0  9992
2 43678  98.1051 305.6274 0013591   1.4202 358.7056 15.00171085407765
1 43700U 18090A   26111.86450859  .00000137  00000-0  00000+0 0  9998
2 43700   0.0122 222.5816 0001060 182.1900 142.1503  1.00271924 27118
1 43803U 18099AX  26111.42780535  .00016671  00000-0  54394-3 0  9999
2 43803  97.4168 174.1327 0007531 112.4689 247.7350 15.31830017404934
1 44453U 19046A   26111.39073749 -.00000045  00000-0  00000+0 0  9992
2 44453  63.0776  58.0629 7058930 274.7018  14.9365  2.00612859 49208
1 44909U 19096E   26111.48016797  .00000021  00000-0  49026-4 0  9992
2 44909  82.5263  17.3865 0216385 277.0493  80.6046 12.79747924295092
1 45254U 20015A   26106.65281831 -.00000075  00000-0  00000-0 0  9990
2 45254  65.5094 325.5206 6878027 278.9530  14.7936  2.00601914 45053
1 52145U 22030A   26110.64787771  .00000242  00000-0  00000-0 0  9999
2 52145  62.6748 146.9574 6769128 272.9061  17.7564  2.00616430 29872
1 57167U 23091B   26010.59363612  .08733485  25619-5  12458-2 0  9993
2 57167  97.4978  91.1570 0009532 282.8011  77.2220 16.34765267141469
1 59112U 24043Q   26111.37617296  .00037959  00000-0  57205-3 0  9998
2 59112  97.5474 258.4933 0007052  57.4189 302.7745 15.54676810119055
1 67291U 25313AV  26111.47559989  .00014263  00000-0  57713-3 0  9998
2 67291  97.3946 187.3373 0009483 184.9672 175.1474 15.24769446 17340
1 26635U 00080A   21013.46269075 0.00000000  00000-0  00000-0 0    09
2 26635   9.2857  29.8038 0014383 186.3086 173.6859  1.00273100    09
1 34810U 09020A   25358.93258989 0.00000000  00000-0  00000-0 0    06
2 34810   2.7881  81.1408 0004972 246.2147 113.7417  1.00270000    08
1 40614U 15022B   25359.93496764 0.00000000  00000-0  00000-0 0    00
2 40614   0.0160 108.2839 0003453 352.8976   7.0980  1.00270000    04
